STARLINK-11589 [DTC]    
1 63311U 25057E   25305.51060571  .00258135  00000+0  19494-2 0  9995
2 63311  42.9993 317.5752 0002897 272.2601  87.7935 15.70886768 37014
STARLINK-11650 [DTC]    
1 63312U 25057F   25306.32216904  .00256543  00000+0  19337-2 0  9996
2 63312  42.9991 312.4723 0001041 235.9957 124.0812 15.70938821 37179
STARLINK-11648 [DTC]    
1 63313U 25057G   25307.72009696  .00272504  00000+0  20459-2 0  9992
2 63313  42.9986 304.0328 0000570   5.8364 354.2510 15.70982852 37360
STARLINK-11640 [DTC]    
1 63314U 25057H   25307.71478810  .00301571  00000+0  22633-2 0  9993
2 63314  42.9995 303.9904 0000770  17.7609 342.3285 15.70904605 37362
STARLINK-11652 [DTC]    
1 63315U 25057J   25306.30532863  .00280206  00000+0  20940-2 0  9997
2 63315  42.9980 312.3354 0001375 185.4290 174.6563 15.71071688 37172
STARLINK-11645 [DTC]    
1 63316U 25057K   25306.32656780  .00224006  00000+0  16960-2 0  9998
2 63316  42.9997 312.5056 0001336 278.7775  81.2942 15.70931838 37178
STARLINK-11633 [DTC]    
1 63317U 25057L   25306.33335648 -.00084128  00000+0 -65820-3 0  9998
2 63317  42.9997 311.7952 0001324 277.5358  31.5204 15.70861023  6001
STARLINK-11593 [DTC]    
1 63318U 25057M   25307.68823797  .00240042  00000+0  18164-2 0  9990
2 63318  42.9997 303.7738 0000302  18.5099 341.5779 15.70895863 37391
STARLINK-11588 [DTC]    
1 63319U 25057N   25307.69886022  .00383092  00000+0  28417-2 0  9997
2 63319  42.9994 303.8591 0001093  46.9659 313.1300 15.70938496 37364
STARLINK-33671          
1 63320U 25057P   25306.46903512  .00031644  00000+0  11540-2 0  9999
2 63320  43.0024  18.6899 0000154 264.5876  95.4958 15.27594552 36440
STARLINK-33650          
1 63321U 25057Q   25305.55602027  .00035901  00000+0  13077-2 0  9993
2 63321  43.0033  34.2598 0000341 188.5674 171.5172 15.27583216 36146
STARLINK-33689          
1 63322U 25057R   25307.64067220  .00047706  00000+0  17296-2 0  9999
2 63322  43.0002  22.3831 0001397 261.1989  98.8704 15.27625056 36501
STARLINK-33607          
1 63323U 25057S   25305.96247936  .00023531  00000+0  86204-3 0  9993
2 63323  43.0044  32.1527 0002629 262.8012  97.2541 15.27573420 36209
STARLINK-33619          
1 63324U 25057T   25307.63167623  .00042552  00000+0  15447-2 0  9998
2 63324  43.0048  22.3123 0001033 264.6667  95.4067 15.27628988 36507
STARLINK-33612          
1 63325U 25057U   25307.55616065  .00041156  00000+0  14951-2 0  9997
2 63325  43.0034  23.4737 0002485 267.8463  92.2104 15.27615732 36484
STARLINK-33672          
1 63326U 25057V   25305.62011821  .00021969  00000+0  80590-3 0  9996
2 63326  43.0027  33.8640 0001383 297.3114  62.7596 15.27562081 36195
