[{"OBJECT_NAME":"STARLINK-11589 [DTC]","OBJECT_ID":"2025-057E","EPOCH":"2025-11-01T12:15:16.333344","MEAN_MOTION":15.70886768,"ECCENTRICITY":0.00028975,"INCLINATION":42.9993,"RA_OF_ASC_NODE":317.5752,"ARG_OF_PERICENTER":272.2601,"MEAN_ANOMALY":87.7935,"EPHEMERIS_TYPE":0,"CLASSIFICATION_TYPE":"U","NORAD_CAT_ID":63311,"ELEMENT_SET_NO":999,"REV_AT_EPOCH":3701,"BSTAR":0.0019494192,"MEAN_MOTION_DOT":0.00258135,"MEAN_MOTION_DDOT":0},{"OBJECT_NAME":"STARLINK-11650 [DTC]","OBJECT_ID":"2025-057F","EPOCH":"2025-11-02T07:43:55.405056","MEAN_MOTION":15.70938821,"ECCENTRICITY":0.0001041,"INCLINATION":42.9991,"RA_OF_ASC_NODE":312.4723,"ARG_OF_PERICENTER":235.9957,"MEAN_ANOMALY":124.0812,"EPHEMERIS_TYPE":0,"CLASSIFICATION_TYPE":"U","NORAD_CAT_ID":63312,"ELEMENT_SET_NO":999,"REV_AT_EPOCH":3717,"BSTAR":0.0019337,"MEAN_MOTION_DOT":0.00256543,"MEAN_MOTION_DDOT":0},{"OBJECT_NAME":"STARLINK-11648 [DTC]","OBJECT_ID":"2025-057G","EPOCH":"2025-11-03T17:16:56.377344","MEAN_MOTION":15.70982852,"ECCENTRICITY":5.7e-5,"INCLINATION":42.9986,"RA_OF_ASC_NODE":304.0328,"ARG_OF_PERICENTER":5.8364,"MEAN_ANOMALY":354.251,"EPHEMERIS_TYPE":0,"CLASSIFICATION_TYPE":"U","NORAD_CAT_ID":63313,"ELEMENT_SET_NO":999,"REV_AT_EPOCH":3736,"BSTAR":0.0020459,"MEAN_MOTION_DOT":0.00272504,"MEAN_MOTION_DDOT":0},{"OBJECT_NAME":"STARLINK-11640 [DTC]","OBJECT_ID":"2025-057H","EPOCH":"2025-11-03T17:09:17.691840","MEAN_MOTION":15.70904605,"ECCENTRICITY":7.7e-5,"INCLINATION":42.9995,"RA_OF_ASC_NODE":303.9904,"ARG_OF_PERICENTER":17.7609,"MEAN_ANOMALY":342.3285,"EPHEMERIS_TYPE":0,"CLASSIFICATION_TYPE":"U","NORAD_CAT_ID":63314,"ELEMENT_SET_NO":999,"REV_AT_EPOCH":3736,"BSTAR":0.0022633,"MEAN_MOTION_DOT":0.00301571,"MEAN_MOTION_DDOT":0},{"OBJECT_NAME":"STARLINK-11652 [DTC]","OBJECT_ID":"2025-057J","EPOCH":"2025-11-02T07:19:40.393632","MEAN_MOTION":15.71071688,"ECCENTRICITY":0.00013759,"INCLINATION":42.998,"RA_OF_ASC_NODE":312.3354,"ARG_OF_PERICENTER":185.429,"MEAN_ANOMALY":174.6563,"EPHEMERIS_TYPE":0,"CLASSIFICATION_TYPE":"U","NORAD_CAT_ID":63315,"ELEMENT_SET_NO":999,"REV_AT_EPOCH":3717,"BSTAR":0.002093955,"MEAN_MOTION_DOT":0.00280206,"MEAN_MOTION_DDOT":0},{"OBJECT_NAME":"STARLINK-11645 [DTC]","OBJECT_ID":"2025-057K","EPOCH":"2025-11-02T07:50:15.457920","MEAN_MOTION":15.70931838,"ECCENTRICITY":0.0001336,"INCLINATION":42.9997,"RA_OF_ASC_NODE":312.5056,"ARG_OF_PERICENTER":278.7775,"MEAN_ANOMALY":81.2942,"EPHEMERIS_TYPE":0,"CLASSIFICATION_TYPE":"U","NORAD_CAT_ID":63316,"ELEMENT_SET_NO":999,"REV_AT_EPOCH":3717,"BSTAR":0.001696,"MEAN_MOTION_DOT":0.00224006,"MEAN_MOTION_DDOT":0},{"OBJECT_NAME":"STARLINK-11633 [DTC]","OBJECT_ID":"2025-057L","EPOCH":"2025-11-02T08:00:01.999872","MEAN_MOTION":15.70861023,"ECCENTRICITY":0.00013243,"INCLINATION":42.9997,"RA_OF_ASC_NODE":311.7952,"ARG_OF_PERICENTER":277.5358,"MEAN_ANOMALY":31.5204,"EPHEMERIS_TYPE":0,"CLASSIFICATION_TYPE":"U","NORAD_CAT_ID":63317,"ELEMENT_SET_NO":999,"REV_AT_EPOCH":600,"BSTAR":-0.00065819877,"MEAN_MOTION_DOT":-0.00084128,"MEAN_MOTION_DDOT":0},{"OBJECT_NAME":"STARLINK-11593 [DTC]","OBJECT_ID":"2025-057M","EPOCH":"2025-11-03T16:31:03.760608","MEAN_MOTION":15.70895863,"ECCENTRICITY":3.02e-5,"INCLINATION":42.9997,"RA_OF_ASC_NODE":303.7738,"ARG_OF_PERICENTER":18.5099,"MEAN_ANOMALY":341.5779,"EPHEMERIS_TYPE":0,"CLASSIFICATION_TYPE":"U","NORAD_CAT_ID":63318,"ELEMENT_SET_NO":999,"REV_AT_EPOCH":3739,"BSTAR":0.0018164,"MEAN_MOTION_DOT":0.00240042,"MEAN_MOTION_DDOT":0},{"OBJECT_NAME":"STARLINK-11588 [DTC]","OBJECT_ID":"2025-057N","EPOCH":"2025-11-03T16:46:21.523008","MEAN_MOTION":15.70938496,"ECCENTRICITY":0.0001093,"INCLINATION":42.9994,"RA_OF_ASC_NODE":303.8591,"ARG_OF_PERICENTER":46.9659,"MEAN_ANOMALY":313.13,"EPHEMERIS_TYPE":0,"CLASSIFICATION_TYPE":"U","NORAD_CAT_ID":63319,"ELEMENT_SET_NO":999,"REV_AT_EPOCH":3736,"BSTAR":0.0028417,"MEAN_MOTION_DOT":0.00383092,"MEAN_MOTION_DDOT":0},{"OBJECT_NAME":"STARLINK-33671","OBJECT_ID":"2025-057P","EPOCH":"2025-11-02T11:15:24.634368","MEAN_MOTION":15.27594552,"ECCENTRICITY":1.54e-5,"INCLINATION":43.0024,"RA_OF_ASC_NODE":18.6899,"ARG_OF_PERICENTER":264.5876,"MEAN_ANOMALY":95.4958,"EPHEMERIS_TYPE":0,"CLASSIFICATION_TYPE":"U","NORAD_CAT_ID":63320,"ELEMENT_SET_NO":999,"REV_AT_EPOCH":3644,"BSTAR":0.001154,"MEAN_MOTION_DOT":0.00031644,"MEAN_MOTION_DDOT":0},{"OBJECT_NAME":"STARLINK-33650","OBJECT_ID":"2025-057Q","EPOCH":"2025-11-01T13:20:40.151328","MEAN_MOTION":15.27583216,"ECCENTRICITY":3.412e-5,"INCLINATION":43.0033,"RA_OF_ASC_NODE":34.2598,"ARG_OF_PERICENTER":188.5674,"MEAN_ANOMALY":171.5172,"EPHEMERIS_TYPE":0,"CLASSIFICATION_TYPE":"U","NORAD_CAT_ID":63321,"ELEMENT_SET_NO":999,"REV_AT_EPOCH":3614,"BSTAR":0.0013076684,"MEAN_MOTION_DOT":0.00035901,"MEAN_MOTION_DDOT":0},{"OBJECT_NAME":"STARLINK-33689","OBJECT_ID":"2025-057R","EPOCH":"2025-11-03T15:22:34.078080","MEAN_MOTION":15.27625056,"ECCENTRICITY":0.0001397,"INCLINATION":43.0002,"RA_OF_ASC_NODE":22.3831,"ARG_OF_PERICENTER":261.1989,"MEAN_ANOMALY":98.8704,"EPHEMERIS_TYPE":0,"CLASSIFICATION_TYPE":"U","NORAD_CAT_ID":63322,"ELEMENT_SET_NO":999,"REV_AT_EPOCH":3650,"BSTAR":0.0017296,"MEAN_MOTION_DOT":0.00047706,"MEAN_MOTION_DDOT":0},{"OBJECT_NAME":"STARLINK-33607","OBJECT_ID":"2025-057S","EPOCH":"2025-11-01T23:05:58.216704","MEAN_MOTION":15.2757342,"ECCENTRICITY":0.00026291,"INCLINATION":43.0044,"RA_OF_ASC_NODE":32.1527,"ARG_OF_PERICENTER":262.8012,"MEAN_ANOMALY":97.2541,"EPHEMERIS_TYPE":0,"CLASSIFICATION_TYPE":"U","NORAD_CAT_ID":63323,"ELEMENT_SET_NO":999,"REV_AT_EPOCH":3620,"BSTAR":0.0008620365,"MEAN_MOTION_DOT":0.00023531,"MEAN_MOTION_DDOT":0},{"OBJECT_NAME":"STARLINK-33619","OBJECT_ID":"2025-057T","EPOCH":"2025-11-03T15:09:36.826272","MEAN_MOTION":15.27628988,"ECCENTRICITY":0.0001033,"INCLINATION":43.0048,"RA_OF_ASC_NODE":22.3123,"ARG_OF_PERICENTER":264.6667,"MEAN_ANOMALY":95.4067,"EPHEMERIS_TYPE":0,"CLASSIFICATION_TYPE":"U","NORAD_CAT_ID":63324,"ELEMENT_SET_NO":999,"REV_AT_EPOCH":3650,"BSTAR":0.0015447,"MEAN_MOTION_DOT":0.00042552,"MEAN_MOTION_DDOT":0},{"OBJECT_NAME":"STARLINK-33612","OBJECT_ID":"2025-057U","EPOCH":"2025-11-03T13:20:52.280160","MEAN_MOTION":15.27615732,"ECCENTRICITY":0.0002485,"INCLINATION":43.0034,"RA_OF_ASC_NODE":23.4737,"ARG_OF_PERICENTER":267.8463,"MEAN_ANOMALY":92.2104,"EPHEMERIS_TYPE":0,"CLASSIFICATION_TYPE":"U","NORAD_CAT_ID":63325,"ELEMENT_SET_NO":999,"REV_AT_EPOCH":3648,"BSTAR":0.0014951,"MEAN_MOTION_DOT":0.00041156,"MEAN_MOTION_DDOT":0},{"OBJECT_NAME":"STARLINK-33672","OBJECT_ID":"2025-057V","EPOCH":"2025-11-01T14:52:58.213344","MEAN_MOTION":15.27562081,"ECCENTRICITY":0.00013834,"INCLINATION":43.0027,"RA_OF_ASC_NODE":33.864,"ARG_OF_PERICENTER":297.3114,"MEAN_ANOMALY":62.7596,"EPHEMERIS_TYPE":0,"CLASSIFICATION_TYPE":"U","NORAD_CAT_ID":63326,"ELEMENT_SET_NO":999,"REV_AT_EPOCH":3619,"BSTAR":0.00080590427,"MEAN_MOTION_DOT":0.00021969,"MEAN_MOTION_DDOT":0}]
